NORAD_CAT_ID,EPOCH,MEAN_MOTION,ECCENTRICITY,INCLINATION,RA_OF_ASC_NODE,ARG_OF_PERICENTER,MEAN_ANOMALY,APOAPSIS,PERIAPSIS,BSTAR,COUNTRY_CODE,RCS_SIZE,NAME,LINE1,LINE2
42394,2025-08-08T08:04:21.213696,14.51955549,0.0036046,98.9876,53.2098,318.5993,41.2469,744.854,693.687,0.0013218,US,SMALL,0 NOAA 16 DEB,1 42394U 00055SN  25220.33635664  .00005331  00000-0  13218-2 0  9998,2 42394  98.9876  53.2098 0036046 318.5993  41.2469 14.51955549490091
42396,2025-08-07T07:53:19.512384,14.51231234,0.0028228,98.7926,351.7888,245.8258,113.9984,741.673,701.591,0.0019148,US,SMALL,0 NOAA 16 DEB,1 42396U 00055SQ  25219.32869806  .00007607  00000-0  19148-2 0  9990,2 42396  98.7926 351.7888 0028228 245.8258 113.9984 14.51231234491648
42397,2025-08-08T12:39:32.077440,14.39732269,0.0036977,98.7382,304.8979,145.124,215.2381,785.778,732.993,0.0022008,US,SMALL,0 NOAA 16 DEB,1 42397U 00055SR  25220.52745460  .00006910  00000-0  22008-2 0  9999,2 42397  98.7382 304.8979 0036977 145.1240 215.2381 14.39732269488630
42398,2025-08-08T06:19:51.854304,14.15289091,0.0033392,98.6569,229.0974,50.5471,309.8649,865.438,817.224,0.00099984,US,SMALL,0 NOAA 16 DEB,1 42398U 00055SS  25220.26379461  .00001914  00000-0  99984-3 0  9992,2 42398  98.6569 229.0974 0033392  50.5471 309.8649 14.15289091484843
42399,2025-08-08T09:58:35.284224,14.24737297,0.0011967,98.6881,287.3162,208.0125,152.0411,817.979,800.777,0.00099646,US,SMALL,0 NOAA 16 DEB,1 42399U 00055ST  25220.41568616  .00002279  00000-0  99646-3 0  9992,2 42399  98.6881 287.3162 0011967 208.0125 152.0411 14.24737297484309
42400,2025-08-09T09:16:26.916960,14.23135965,0.0021418,98.6618,268.4215,221.0438,138.913,830.174,799.363,0.0011511,US,SMALL,0 NOAA 16 DEB,1 42400U 00055SU  25221.38642265  .00002562  00000-0  11511-2 0  9994,2 42400  98.6618 268.4215 0021418 221.0438 138.9130 14.23135965482237
42401,2025-08-09T10:28:27.335136,14.53273247,0.004611,98.9714,70.7406,271.461,88.1303,747.686,682.273,0.0015903,US,SMALL,0 NOAA 16 DEB,1 42401U 00055SV  25221.43642749  .00006645  00000-0  15903-2 0  9993,2 42401  98.9714  70.7406 0046110 271.4610  88.1303 14.53273247493049
42402,2025-08-08T19:35:56.817312,14.41391259,0.0031183,99.0463,59.5307,338.2855,21.7008,776.147,731.668,0.0010201,US,SMALL,0 NOAA 16 DEB,1 42402U 00055SW  25220.81662983  .00003276  00000-0  10201-2 0  9990,2 42402  99.0463  59.5307 0031183 338.2855  21.7008 14.41391259491308
42405,2025-08-08T13:30:18.908640,14.48127808,0.0027576,99.0425,83.6287,340.2584,19.7537,751.378,712.166,0.0013531,US,SMALL,0 NOAA 16 DEB,1 42405U 00055SZ  25220.56271885  .00005014  00000-0  13531-2 0  9993,2 42405  99.0425  83.6287 0027576 340.2584  19.7537 14.48127808488480
42406,2025-08-03T23:40:39.143424,14.19363242,0.0017894,98.6097,276.356,149.2751,210.9477,840.403,814.615,0.0004497,US,SMALL,0 NOAA 16 DEB,1 42406U 00055TA  25215.98656416  .00000904  00000-0  44970-3 0  9996,2 42406  98.6097 276.3560 0017894 149.2751 210.9477 14.19363242484005
42407,2025-08-09T05:58:33.825504,14.65197091,0.0011096,98.9718,28.6795,207.4067,152.655,684.272,668.617,0.0056605,US,SMALL,0 NOAA 16 DEB,1 42407U 00055TB  25221.24900261  .00030570  00000-0  56605-2 0  9992,2 42407  98.9718  28.6795 0011096 207.4067 152.6550 14.65197091484420
42408,2025-08-08T21:39:31.110624,14.21654675,0.0016306,98.7391,279.345,350.9332,9.1548,831.501,808.027,0.0014074,US,SMALL,0 NOAA 16 DEB,1 42408U 00055TC  25220.90244341  .00003050  00000-0  14074-2 0  9992,2 42408  98.7391 279.3450 0016306 350.9332   9.1548 14.21654675483359
42409,2025-08-08T04:58:06.700800,14.61927492,0.0028718,98.7726,358.737,196.4068,163.6205,707.249,666.67,0.0026092,US,SMALL,0 NOAA 16 DEB,1 42409U 00055TD  25220.20702200  .00013107  00000-0  26092-2 0  9996,2 42409  98.7726 358.7370 0028718 196.4068 163.6205 14.61927492489327
42410,2025-08-06T14:13:38.472960,14.47842152,0.0030382,98.8133,351.0385,323.7664,36.1469,754.311,711.103,0.0015998,US,SMALL,0 NOAA 16 DEB,1 42410U 00055TE  25218.59280640  .00005911  00000-0  15998-2 0  9993,2 42410  98.8133 351.0385 0030382 323.7664  36.1469 14.47842152491110
42412,2025-08-09T03:50:33.348480,14.96022144,0.0010181,98.7897,357.6077,302.5053,57.518,586.287,572.121,0.0105,US,SMALL,0 NOAA 16 DEB,1 42412U 00055TG  25221.16010820  .00119873  00000-0  10500-1 0  9999,2 42412  98.7897 357.6077 0010181 302.5053  57.5180 14.96022144488411
42413,2025-08-09T08:58:24.608352,14.425158,0.0021924,98.9223,10.9185,332.5501,27.4527,765.829,734.572,0.0016711,US,SMALL,0 NOAA 16 DEB,1 42413U 00055TH  25221.37389593  .00005512  00000-0  16711-2 0  9994,2 42413  98.9223  10.9185 0021924 332.5501  27.4527 14.42515800490448
42415,2025-08-08T18:05:14.946144,14.40867622,0.002436,99.018,27.6615,349.5923,10.4757,773.013,738.257,0.0013647,US,SMALL,0 NOAA 16 DEB,1 42415U 00055TK  25220.75364521  .00004344  00000-0  13647-2 0  9998,2 42415  99.0180  27.6615 0024360 349.5923  10.4757 14.40867622489300
42416,2025-08-06T07:15:48.083040,14.49733834,0.0014193,98.8553,343.4213,142.2119,218.0073,736.604,716.436,0.0029562,US,SMALL,0 NOAA 16 DEB,1 42416U 00055TL  25218.30263985  .00011368  00000-0  29562-2 0  9996,2 42416  98.8553 343.4213 0014193 142.2119 218.0073 14.49733834484020
42417,2025-08-07T10:32:11.625216,14.28379687,0.002535,98.756,291.1868,253.9669,105.872,815.343,778.965,0.0015214,US,SMALL,0 NOAA 16 DEB,1 42417U 00055TM  25219.43902344  .00003772  00000-0  15214-2 0  9990,2 42417  98.7560 291.1868 0025350 253.9669 105.8720 14.28379687485673
42418,2025-08-08T01:00:39.468672,14.29093014,0.0009066,98.6887,294.5083,6.7831,353.3472,801.269,788.263,0.0012622,US,SMALL,0 NOAA 16 DEB,1 42418U 00055TN  25220.04212348  .00003157  00000-0  12622-2 0  9995,2 42418  98.6887 294.5083 0009066   6.7831 353.3472 14.29093014486901
42419,2025-08-08T02:16:21.795744,14.4896446,0.0019583,98.8254,329.3211,187.8684,172.2203,742.953,715.117,0.0033844,US,SMALL,0 NOAA 16 DEB,1 42419U 00055TP  25220.09469671  .00012830  00000-0  33844-2 0  9991,2 42419  98.8254 329.3211 0019583 187.8684 172.2203 14.48964460487289
42421,2025-08-01T03:44:51.232992,14.06425946,0.007935,98.8705,190.9413,274.0562,85.154,929.157,814.103,0.0018058,US,SMALL,0 NOAA 16 DEB,1 42421U 00055TR  25213.15614853  .00003026  00000-0  18058-2 0  9994,2 42421  98.8705 190.9413 0079350 274.0562  85.1540 14.06425946445332
42422,2025-08-08T05:02:29.343840,14.31039495,0.0014024,98.7797,317.682,134.2987,225.9348,798.31,778.21,0.0013329,US,SMALL,0 NOAA 16 DEB,1 42422U 00055TS  25220.21006185  .00003469  00000-0  13329-2 0  9990,2 42422  98.7797 317.6820 0014024 134.2987 225.9348 14.31039495482180
42423,2025-08-08T16:45:49.239648,14.89976068,0.000977,98.8966,15.1105,236.7767,123.2511,604.828,591.197,0.0077864,US,SMALL,0 NOAA 16 DEB,1 42423U 00055TT  25220.69848657  .00075841  00000-0  77864-2 0  9998,2 42423  98.8966  15.1105 0009770 236.7767 123.2511 14.89976068483162
42425,2025-08-08T07:59:13.383456,14.17194726,0.0025372,98.7179,258.4343,32.1897,328.082,853.158,816.557,0.0010023,US,SMALL,0 NOAA 16 DEB,1 42425U 00055TV  25220.33279379  .00001985  00000-0  10023-2 0  9992,2 42425  98.7179 258.4343 0025372  32.1897 328.0820 14.17194726462397
42426,2025-08-09T07:37:24.606624,14.23176844,0.0011876,98.6019,246.2306,343.6693,16.4101,823.173,806.089,0.0012959,US,SMALL,0 NOAA 16 DEB,1 42426U 00055TW  25221.31764591  .00002888  00000-0  12959-2 0  9990,2 42426  98.6019 246.2306 0011876 343.6693  16.4101 14.23176844463852
42427,2025-08-03T21:48:31.700736,14.7279035,0.0040654,98.9028,90.1493,114.7315,245.8129,680.757,623.595,0.0020808,US,SMALL,0 NOAA 16 DEB,1 42427U 00055TX  25215.90870024  .00013438  00000-0  20808-2 0  9993,2 42427  98.9028  90.1493 0040654 114.7315 245.8129 14.72790350470914
42428,2025-08-09T02:29:35.210400,14.26900545,0.0025327,98.9379,352.0425,56.7158,303.6443,820.297,783.926,0.00068636,US,SMALL,0 NOAA 16 DEB,1 42428U 00055TY  25221.10387975  .00001626  00000-0  68636-3 0  9999,2 42428  98.9379 352.0425 0025327  56.7158 303.6443 14.26900545446259
42429,2025-08-09T11:26:04.250976,14.30645281,0.0024438,98.8387,296.4013,11.1216,349.0501,807.093,772.06,0.0022649,US,SMALL,0 NOAA 16 DEB,1 42429U 00055TZ  25221.47643809  .00005895  00000-0  22649-2 0  9996,2 42429  98.8387 296.4013 0024438  11.1216 349.0501 14.30645281461595
42435,2025-08-09T09:18:53.685504,13.42491988,0.0053916,100.1883,18.5908,204.2576,155.6013,1140.332,1059.694,0.0028162,US,SMALL,0 NIMBUS 2 DEB,1 42435U 66040BN  25221.38812136  .00001561  00000-0  28162-2 0  9992,2 42435 100.1883  18.5908 0053916 204.2576 155.6013 13.42491988433743
42436,2025-08-08T23:46:02.898912,13.44938012,0.0044371,100.3231,57.2381,208.9701,150.8965,1124.084,1057.802,0.0029921,US,SMALL,0 NIMBUS 2 DEB,1 42436U 66040BP  25220.99031133  .00001721  00000-0  29921-2 0  9991,2 42436 100.3231  57.2381 0044371 208.9701 150.8965 13.44938012497945
42439,2025-08-03T19:23:17.592000,13.4867378,0.0033154,100.2533,58.9901,170.5923,189.5837,1101.861,1052.427,0.0031479,US,SMALL,0 NIMBUS 2 DEB,1 42439U 66040BS  25215.80784250  .00001921  00000-0  31479-2 0  9996,2 42439 100.2533  58.9901 0033154 170.5923 189.5837 13.48673780480205
42440,2025-08-09T04:34:58.311552,13.43834342,0.0048144,100.2658,33.8812,206.1071,153.7629,1131.011,1059.053,0.0028943,US,SMALL,0 NIMBUS 2 DEB,1 42440U 66040BT  25221.19095268  .00001637  00000-0  28943-2 0  9997,2 42440 100.2658  33.8812 0048144 206.1071 153.7629 13.43834342461279
42441,2025-08-07T12:21:49.862016,13.4368289,0.00311552,100.4436,50.9518,261.3,98.4599,1118.878,1072.309,0.0033877954,US,SMALL,0 NIMBUS 2 DEB,1 42441U 66040BU  25219.51516044  .00001910  00000-0  33878-2 0  9998,2 42441 100.4436  50.9518 0031155 261.3000  98.4599 13.43682890421555
42453,2025-08-08T09:19:47.490240,13.96273057,0.0010896,82.5276,271.6859,152.2626,207.9124,914.669,898.794,0.0011329,CIS,SMALL,0 METEOR 2-11 DEB,1 42453U 84072P   25220.38874410  .00001574  00000-0  11329-2 0  9990,2 42453  82.5276 271.6859 0010896 152.2626 207.9124 13.96273057533689
